STARLINK-3915           
1 52581U 22051AX  26068.40925243  .00001132  00000+0  89171-4 0  9998
2 52581  53.2163 120.3814 0001236  90.8970 269.2164 15.08845824211545
YAM-8                   
1 63254U 25052AW  26068.73092778  .00007810  00000+0  47267-3 0  9993
2 63254  97.7023 329.5345 0002369 152.6796 207.4558 15.10898938 54245
